HIMAWARI-8              
1 40267U 14060A   24160.14493980 -.00000276  00000+0  00000+0 0  9995
2 40267   0.0662 130.1100 0000679 318.8010   0.9538  1.00271344 35458
